GPS BIIR-2  (PRN 13)    
1 24876U 97035A   23338.83615454  .00000082  00000+0  00000+0 0  9994
2 24876  55.6139 134.7689 0075388  53.6181 307.0714  2.00564889193390
GPS BIIR-4  (PRN 20)    
1 26360U 00025A   23340.22499560 -.00000073  00000+0  00000+0 0  9992
2 26360  54.5090  56.8017 0041638 206.1023 167.5133  2.00564348172733
GPS BIIR-5  (PRN 22)    
1 26407U 00040A   23339.17052514 -.00000033  00000+0  00000+0 0  9993
2 26407  55.1557 251.9476 0151287 293.2014 240.5217  2.00557402171395
GPS BIIR-8  (PRN 16)    
1 27663U 03005A   23339.75171913 -.00000030  00000+0  00000+0 0  9998
2 27663  55.1962 251.7355 0135914  45.5112 324.6983  2.00560783152771
GPS BIIR-9  (PRN 21)    
1 27704U 03010A   23339.65256588 -.00000082  00000+0  00000+0 0  9998
2 27704  55.1155   1.6431 0251869 321.0206 195.5810  2.00555507151560
GPS BIIR-11 (PRN 19)    
1 28190U 04009A   23339.16228014 -.00000059  00000+0  00000+0 0  9990
2 28190  55.6191 312.8156 0092112 141.8536 319.6628  2.00564544144394
GPS BIIR-13 (PRN 02)    
1 28474U 04045A   23339.94349190 -.00000080  00000+0  00000+0 0  9994
2 28474  55.4430   1.9842 0164516 285.6313  71.9672  2.00536793139889
GPS BIIRM-1 (PRN 17)    
1 28874U 05038A   23340.10804816 -.00000058  00000+0  00000+0 0  9997
2 28874  55.6678 310.2328 0140170 281.5525 166.5421  2.00569205133290
GPS BIIRM-2 (PRN 31)    
1 29486U 06042A   23339.64269172  .00000078  00000+0  00000+0 0  9991
2 29486  54.6794 187.9965 0104841  35.2788 337.3173  2.00565467125855
GPS BIIRM-3 (PRN 12)    
1 29601U 06052A   23339.05381551 -.00000031  00000+0  00000+0 0  9992
2 29601  55.2204 250.7286 0085594  79.7424 281.2643  2.00554685124853
GPS BIIRM-4 (PRN 15)    
1 32260U 07047A   23339.36450384  .00000053  00000+0  00000+0 0  9990
2 32260  53.5103 118.3258 0152527  72.9470 288.7022  2.00574369118264
GPS BIIRM-5 (PRN 29)    
1 32384U 07062A   23340.21942740 -.00000058  00000+0  00000+0 0  9998
2 32384  55.8021 311.0633 0023887 151.4568 235.9592  2.00563511117049
GPS BIIRM-6 (PRN 07)    
1 32711U 08012A   23339.27907068  .00000074  00000+0  00000+0 0  9993
2 32711  54.4484 186.8206 0178489 236.3951 121.9577  2.00560766115205
GPS BIIRM-8 (PRN 05)    
1 35752U 09043A   23339.39620708 -.00000062  00000+0  00000+0 0  9990
2 35752  55.5105  64.0434 0056212  70.3148  29.4211  2.00552829104811
GPS BIIF-1  (PRN 25)    
1 36585U 10022A   23339.36264045 -.00000025  00000+0  00000+0 0  9998
2 36585  54.5224 245.8717 0113520  60.1016 135.2733  2.00566774 99044
GPS BIIF-3  (PRN 24)    
1 38833U 12053A   23339.45194116  .00000082  00000+0  00000+0 0  9995
2 38833  53.5114 181.4272 0147513  53.8593 307.5629  2.00568803 80894
GPS BIIF-4  (PRN 27)    
1 39166U 13023A   23339.31658627 -.00000058  00000+0  00000+0 0  9994
2 39166  55.2824 306.4240 0117894  41.6483 319.2417  2.00564218 77333
GPS BIIF-5  (PRN 30)    
1 39533U 14008A   23339.81750704  .00000080  00000+0  00000+0 0  9994
2 39533  53.5966 186.9832 0067318 215.2187 144.4055  2.00557054 71691
GPS BIIF-6  (PRN 06)    
1 39741U 14026A   23339.10353734 -.00000085  00000+0  00000+0 0  9995
2 39741  56.7054   7.4305 0032443 310.0187  49.7484  2.00550904 69981
GPS BIIF-7  (PRN 09)    
1 40105U 14045A   23339.18642529  .00000069  00000+0  00000+0 0  9994
2 40105  54.8508 125.4017 0027515 116.0722 244.2007  2.00552886 67526
GPS BIIF-8  (PRN 03)    
1 40294U 14068A   23339.55465151 -.00000057  00000+0  00000+0 0  9991
2 40294  56.2554  66.8483 0048560  62.4886 298.0238  2.00577925 66663
GPS BIIF-9  (PRN 26)    
1 40534U 15013A   23339.70016326 -.00000020  00000+0  00000+0 0  9992
2 40534  53.4203 242.4634 0085291  27.5854 332.9188  2.00548961 63284
GPS BIIF-10 (PRN 08)    
1 40730U 15033A   23339.36339845 -.00000059  00000+0  00000+0 0  9990
2 40730  54.7690 304.9917 0089788  14.8430 345.4160  2.00550205 61447
GPS BIIF-11 (PRN 10)    
1 41019U 15062A   23339.41208686 -.00000057  00000+0  00000+0 0  9995
2 41019  56.2381  66.7055 0093199 222.6871 136.6064  2.00562280 59285
GPS BIIF-12 (PRN 32)    
1 41328U 16007A   23339.49825922  .00000072  00000+0  00000+0 0  9990
2 41328  55.0524 126.1882 0073916 233.9986 125.3052  2.00571408 57293
GPS BIII-1  (PRN 04)    
1 43873U 18109A   23338.88662045  .00000074  00000+0  00000+0 0  9991
2 43873  55.2263 128.7469 0027579 190.1648 342.3807  2.00571888 36517
GPS BIII-2  (PRN 18)    
1 44506U 19056A   23339.52701608 -.00000085  00000+0  00000+0 0  9991
2 44506  55.8323   7.7895 0038691 189.8259 342.9782  2.00567838 31527
GPS BIII-3  (PRN 23)    
1 45854U 20041A   23339.49240457 -.00000060  00000+0  00000+0 0  9993
2 45854  55.9600  65.0901 0039308 190.3384 259.6135  2.00561369 25498
GPS BIII-4  (PRN 14)    
1 46826U 20078A   23340.12657522 -.00000025  00000+0  00000+0 0  9991
2 46826  54.2651 248.2962 0037734 194.1448 329.9291  2.00562701 22966
GPS BIII-5  (PRN 11)    
1 48859U 21054A   23340.11931748 -.00000083  00000+0  00000+0 0  9992
2 48859  55.3521   9.5081 0014292 221.9648 121.3359  2.00568811 18217
GPS BIII-6  (PRN 28)    
1 55268U 23009A   23339.66722060  .00000083  00000+0  00000+0 0  9998
2 55268  55.0858 184.7940 0005327  99.3729 313.7007  2.00578692  6701
